[{"OBJECT_NAME":"CONNECTA IOT-5","OBJECT_ID":"2025-009CY","EPOCH":"2026-03-09T17:09:47.996640","MEAN_MOTION":14.94496249,"ECCENTRICITY":0.00032838,"INCLINATION":97.7071,"RA_OF_ASC_NODE":149.1668,"ARG_OF_PERICENTER":55.944,"MEAN_ANOMALY":304.2092,"EPHEMERIS_TYPE":0,"CLASSIFICATION_TYPE":"U","NORAD_CAT_ID":62703,"ELEMENT_SET_NO":999,"REV_AT_EPOCH":6251,"BSTAR":0.00017598719,"MEAN_MOTION_DOT":1.843e-5,"MEAN_MOTION_DDOT":0},{"OBJECT_NAME":"OKEAN-4","OBJECT_ID":"1994-066A","EPOCH":"2026-03-09T20:34:09.232320","MEAN_MOTION":14.96885016,"ECCENTRICITY":0.00147251,"INCLINATION":82.5373,"RA_OF_ASC_NODE":349.8556,"ARG_OF_PERICENTER":246.8531,"MEAN_ANOMALY":113.1141,"EPHEMERIS_TYPE":0,"CLASSIFICATION_TYPE":"U","NORAD_CAT_ID":23317,"ELEMENT_SET_NO":999,"REV_AT_EPOCH":70047,"BSTAR":0.00028288801,"MEAN_MOTION_DOT":3.276e-5,"MEAN_MOTION_DDOT":0}]
